{
  "type": "FeatureCollection",
  "name": "Балтийская Тропа",
  "features": [
    {
      "type": "Feature",
      "properties": {
        "id": "seed-0",
        "name": "Холмы — место битвы при Рудау",
        "description": "17 февраля 1370 года здесь столкнулись войска Тевтонского ордена и литовского князя Ольгерда. В бою погиб маршал ордена Хеннинг Шиндекопф. Исход битвы — ничья: орден защитил Кёнигсберг, но литовцы ушли с богатой добычей.",
        "category": "history",
        "created": "2026-05-17"
      },
      "geometry": {
        "type": "Point",
        "coordinates": [20.486, 54.904]
      }
    },
    {
      "type": "Feature",
      "properties": {
        "id": "seed-1",
        "name": "Кирха Рудау",
        "description": "Кирха XVI века, перестроенная из флигеля замка Рудау (первое упоминание — 1354 г.). Цветные витражи 1903 года, бронзовый колокол, орган 1906 года. В войну не пострадала, после — зерносушилка. Сейчас заброшена. Объект культурного наследия.",
        "category": "history",
        "created": "2026-05-17"
      },
      "geometry": {
        "type": "Point",
        "coordinates": [20.468, 54.878]
      }
    },
    {
      "type": "Feature",
      "properties": {
        "id": "seed-2",
        "name": "Остатки автобана Самланд",
        "description": "Пересечение с недостроенной автомагистралью 1930-х годов — часть проекта Рейхсавтобан Берлин — Кёнигсберг. В лесу сохранились бетонные фрагменты дороги, которая так и не была достроена.",
        "category": "history",
        "created": "2026-05-17"
      },
      "geometry": {
        "type": "Point",
        "coordinates": [20.443, 54.839]
      }
    },
    {
      "type": "Feature",
      "properties": {
        "id": "seed-3",
        "name": "Урочище Даммкруг",
        "description": "Бывшее поселение, от нем. Dammkrug — «трактир у дамбы». Сейчас — только природа и едва заметные следы фундаментов среди деревьев.",
        "category": "nature",
        "created": "2026-05-17"
      },
      "geometry": {
        "type": "Point",
        "coordinates": [20.439, 54.807]
      }
    },
    {
      "type": "Feature",
      "properties": {
        "id": "seed-4",
        "name": "Холмогоровка (Фуксберг — «Лисья гора»)",
        "description": "Прусское укрепление Каппогарве, имение с 1481 года. Здесь расположен военно-исторический музей «Командный пункт 43-й армии» — отсюда руководили штурмом Кёнигсберга в апреле 1945 года.",
        "category": "history",
        "created": "2026-05-17"
      },
      "geometry": {
        "type": "Point",
        "coordinates": [20.440, 54.798]
      }
    },
    {
      "type": "Feature",
      "properties": {
        "id": "seed-5",
        "name": "Урочище Вильки",
        "description": "Исчезнувший хутор. Лесная дорога через тихий перелесок на подходе к Чкаловску.",
        "category": "nature",
        "created": "2026-05-17"
      },
      "geometry": {
        "type": "Point",
        "coordinates": [20.446, 54.782]
      }
    },
    {
      "type": "Feature",
      "properties": {
        "id": "seed-6",
        "name": "Аэродром Девау",
        "description": "Первый гражданский аэропорт Европы (1919). Отсюда взлетел первый пассажирский рейс Кёнигсберг — Берлин. Первый аэровокзал Европы (1922, архитектор Ханс Хоппе). Последний рейс — май 1977 года.",
        "category": "history",
        "created": "2026-05-17"
      },
      "geometry": {
        "type": "Point",
        "coordinates": [20.436, 54.776]
      }
    }
  ]
}
