<?xml version="1.0" encoding="UTF-8" standalone="no" ?>
<gpx xmlns="http://www.topografix.com/GPX/1/1" creator="http://nakarte.me" xmlns:xsi="http://www.w3.org/2001/XMLSchema-instance" xsi:schemaLocation="http://www.topografix.com/GPX/1/1 http://www.topografix.com/GPX/1/1/gpx.xsd" version="1.1">
	<metadata>
		<time>2026-05-17T12:44:09.551Z</time>
	</metadata>
	<trk>
		<name>Балтийская Тропа</name>
		<trkseg>
			<trkpt lat="54.937670" lon="20.448518"><time>1970-01-01T00:00:01.000Z</time></trkpt>
			<trkpt lat="54.936043" lon="20.450706"><time>1970-01-01T00:00:01.000Z</time></trkpt>
			<trkpt lat="54.934712" lon="20.453067"><time>1970-01-01T00:00:01.000Z</time></trkpt>
			<trkpt lat="54.933232" lon="20.455642"><time>1970-01-01T00:00:01.000Z</time></trkpt>
			<trkpt lat="54.932000" lon="20.457959"><time>1970-01-01T00:00:01.000Z</time></trkpt>
			<trkpt lat="54.931531" lon="20.458775"><time>1970-01-01T00:00:01.000Z</time></trkpt>
			<trkpt lat="54.930421" lon="20.458431"><time>1970-01-01T00:00:01.000Z</time></trkpt>
			<trkpt lat="54.929435" lon="20.468388"><time>1970-01-01T00:00:01.000Z</time></trkpt>
			<trkpt lat="54.929041" lon="20.474653"><time>1970-01-01T00:00:01.000Z</time></trkpt>
			<trkpt lat="54.927758" lon="20.474653"><time>1970-01-01T00:00:01.000Z</time></trkpt>
			<trkpt lat="54.926846" lon="20.475984"><time>1970-01-01T00:00:01.000Z</time></trkpt>
			<trkpt lat="54.927167" lon="20.476928"><time>1970-01-01T00:00:01.000Z</time></trkpt>
			<trkpt lat="54.927561" lon="20.478988"><time>1970-01-01T00:00:01.000Z</time></trkpt>
			<trkpt lat="54.923998" lon="20.480833"><time>1970-01-01T00:00:01.000Z</time></trkpt>
			<trkpt lat="54.923381" lon="20.481198"><time>1970-01-01T00:00:01.000Z</time></trkpt>
			<trkpt lat="54.921766" lon="20.480790"><time>1970-01-01T00:00:01.000Z</time></trkpt>
			<trkpt lat="54.921445" lon="20.480833"><time>1970-01-01T00:00:01.000Z</time></trkpt>
			<trkpt lat="54.918683" lon="20.479438"><time>1970-01-01T00:00:01.000Z</time></trkpt>
			<trkpt lat="54.916771" lon="20.478323"><time>1970-01-01T00:00:01.000Z</time></trkpt>
			<trkpt lat="54.915229" lon="20.477529"><time>1970-01-01T00:00:01.000Z</time></trkpt>
			<trkpt lat="54.914613" lon="20.476692"><time>1970-01-01T00:00:01.000Z</time></trkpt>
			<trkpt lat="54.914403" lon="20.474954"><time>1970-01-01T00:00:01.000Z</time></trkpt>
			<trkpt lat="54.914317" lon="20.473559"><time>1970-01-01T00:00:01.000Z</time></trkpt>
			<trkpt lat="54.914095" lon="20.472915"><time>1970-01-01T00:00:01.000Z</time></trkpt>
			<trkpt lat="54.913885" lon="20.472958"><time>1970-01-01T00:00:01.000Z</time></trkpt>
			<trkpt lat="54.912960" lon="20.473945"><time>1970-01-01T00:00:01.000Z</time></trkpt>
			<trkpt lat="54.909593" lon="20.476606"><time>1970-01-01T00:00:01.000Z</time></trkpt>
			<trkpt lat="54.908125" lon="20.477464"><time>1970-01-01T00:00:01.000Z</time></trkpt>
			<trkpt lat="54.905805" lon="20.479975"><time>1970-01-01T00:00:01.000Z</time></trkpt>
			<trkpt lat="54.904630" lon="20.484485"><time>1970-01-01T00:00:01.000Z</time></trkpt>
			<trkpt lat="54.904136" lon="20.485816"><time>1970-01-01T00:00:01.000Z</time></trkpt>
			<trkpt lat="54.902434" lon="20.485901"><time>1970-01-01T00:00:01.000Z</time></trkpt>
			<trkpt lat="54.902508" lon="20.487146"><time>1970-01-01T00:00:01.000Z</time></trkpt>
			<trkpt lat="54.902385" lon="20.487833"><time>1970-01-01T00:00:01.000Z</time></trkpt>
			<trkpt lat="54.900456" lon="20.488689"><time>1970-01-01T00:00:01.000Z</time></trkpt>
			<trkpt lat="54.898838" lon="20.488260"><time>1970-01-01T00:00:01.000Z</time></trkpt>
			<trkpt lat="54.895960" lon="20.487399"><time>1970-01-01T00:00:01.000Z</time></trkpt>
			<trkpt lat="54.896108" lon="20.485382"><time>1970-01-01T00:00:01.000Z</time></trkpt>
			<trkpt lat="54.895589" lon="20.482078"><time>1970-01-01T00:00:01.000Z</time></trkpt>
			<trkpt lat="54.894701" lon="20.482078"><time>1970-01-01T00:00:01.000Z</time></trkpt>
			<trkpt lat="54.892134" lon="20.482593"><time>1970-01-01T00:00:01.000Z</time></trkpt>
			<trkpt lat="54.891221" lon="20.482249"><time>1970-01-01T00:00:01.000Z</time></trkpt>
			<trkpt lat="54.888629" lon="20.477314"><time>1970-01-01T00:00:01.000Z</time></trkpt>
			<trkpt lat="54.887568" lon="20.476799"><time>1970-01-01T00:00:01.000Z</time></trkpt>
			<trkpt lat="54.886309" lon="20.475554"><time>1970-01-01T00:00:01.000Z</time></trkpt>
			<trkpt lat="54.885223" lon="20.474224"><time>1970-01-01T00:00:01.000Z</time></trkpt>
			<trkpt lat="54.884729" lon="20.473580"><time>1970-01-01T00:00:01.000Z</time></trkpt>
			<trkpt lat="54.884038" lon="20.473537"><time>1970-01-01T00:00:01.000Z</time></trkpt>
			<trkpt lat="54.883594" lon="20.472980"><time>1970-01-01T00:00:01.000Z</time></trkpt>
			<trkpt lat="54.883643" lon="20.471520"><time>1970-01-01T00:00:01.000Z</time></trkpt>
			<trkpt lat="54.883816" lon="20.470533"><time>1970-01-01T00:00:01.000Z</time></trkpt>
			<trkpt lat="54.883618" lon="20.469589"><time>1970-01-01T00:00:01.000Z</time></trkpt>
			<trkpt lat="54.883125" lon="20.468087"><time>1970-01-01T00:00:01.000Z</time></trkpt>
			<trkpt lat="54.882581" lon="20.467272"><time>1970-01-01T00:00:01.000Z</time></trkpt>
			<trkpt lat="54.881791" lon="20.467100"><time>1970-01-01T00:00:01.000Z</time></trkpt>
			<trkpt lat="54.880804" lon="20.467272"><time>1970-01-01T00:00:01.000Z</time></trkpt>
			<trkpt lat="54.879890" lon="20.467315"><time>1970-01-01T00:00:01.000Z</time></trkpt>
			<trkpt lat="54.879174" lon="20.467486"><time>1970-01-01T00:00:01.000Z</time></trkpt>
			<trkpt lat="54.878557" lon="20.467787"><time>1970-01-01T00:00:01.000Z</time></trkpt>
			<trkpt lat="54.878113" lon="20.467916"><time>1970-01-01T00:00:01.000Z</time></trkpt>
			<trkpt lat="54.877718" lon="20.467873"><time>1970-01-01T00:00:01.000Z</time></trkpt>
			<trkpt lat="54.877347" lon="20.466714"><time>1970-01-01T00:00:01.000Z</time></trkpt>
			<trkpt lat="54.877421" lon="20.465512"><time>1970-01-01T00:00:01.000Z</time></trkpt>
			<trkpt lat="54.876360" lon="20.464826"><time>1970-01-01T00:00:01.000Z</time></trkpt>
			<trkpt lat="54.875520" lon="20.464697"><time>1970-01-01T00:00:01.000Z</time></trkpt>
			<trkpt lat="54.874582" lon="20.464225"><time>1970-01-01T00:00:01.000Z</time></trkpt>
			<trkpt lat="54.874137" lon="20.462894"><time>1970-01-01T00:00:01.000Z</time></trkpt>
			<trkpt lat="54.873421" lon="20.462208"><time>1970-01-01T00:00:01.000Z</time></trkpt>
			<trkpt lat="54.872705" lon="20.461435"><time>1970-01-01T00:00:01.000Z</time></trkpt>
			<trkpt lat="54.872483" lon="20.460835"><time>1970-01-01T00:00:01.000Z</time></trkpt>
			<trkpt lat="54.871520" lon="20.462165"><time>1970-01-01T00:00:01.000Z</time></trkpt>
			<trkpt lat="54.870952" lon="20.462809"><time>1970-01-01T00:00:01.000Z</time></trkpt>
			<trkpt lat="54.870359" lon="20.462594"><time>1970-01-01T00:00:01.000Z</time></trkpt>
			<trkpt lat="54.869495" lon="20.461779"><time>1970-01-01T00:00:01.000Z</time></trkpt>
			<trkpt lat="54.868878" lon="20.461049"><time>1970-01-01T00:00:01.000Z</time></trkpt>
			<trkpt lat="54.868285" lon="20.461221"><time>1970-01-01T00:00:01.000Z</time></trkpt>
			<trkpt lat="54.867470" lon="20.461178"><time>1970-01-01T00:00:01.000Z</time></trkpt>
			<trkpt lat="54.866803" lon="20.461135"><time>1970-01-01T00:00:01.000Z</time></trkpt>
			<trkpt lat="54.866186" lon="20.461092"><time>1970-01-01T00:00:01.000Z</time></trkpt>
			<trkpt lat="54.865470" lon="20.461006"><time>1970-01-01T00:00:01.000Z</time></trkpt>
			<trkpt lat="54.865148" lon="20.461092"><time>1970-01-01T00:00:01.000Z</time></trkpt>
			<trkpt lat="54.864408" lon="20.461693"><time>1970-01-01T00:00:01.000Z</time></trkpt>
			<trkpt lat="54.862234" lon="20.459547"><time>1970-01-01T00:00:01.000Z</time></trkpt>
			<trkpt lat="54.860604" lon="20.457745"><time>1970-01-01T00:00:01.000Z</time></trkpt>
			<trkpt lat="54.858331" lon="20.455470"><time>1970-01-01T00:00:01.000Z</time></trkpt>
			<trkpt lat="54.857442" lon="20.454183"><time>1970-01-01T00:00:01.000Z</time></trkpt>
			<trkpt lat="54.856627" lon="20.453839"><time>1970-01-01T00:00:01.000Z</time></trkpt>
			<trkpt lat="54.856627" lon="20.452938"><time>1970-01-01T00:00:01.000Z</time></trkpt>
			<trkpt lat="54.856059" lon="20.452166"><time>1970-01-01T00:00:01.000Z</time></trkpt>
			<trkpt lat="54.855219" lon="20.451436"><time>1970-01-01T00:00:01.000Z</time></trkpt>
			<trkpt lat="54.854799" lon="20.451436"><time>1970-01-01T00:00:01.000Z</time></trkpt>
			<trkpt lat="54.853959" lon="20.450792"><time>1970-01-01T00:00:01.000Z</time></trkpt>
			<trkpt lat="54.852921" lon="20.449934"><time>1970-01-01T00:00:01.000Z</time></trkpt>
			<trkpt lat="54.851834" lon="20.448689"><time>1970-01-01T00:00:01.000Z</time></trkpt>
			<trkpt lat="54.851315" lon="20.448046"><time>1970-01-01T00:00:01.000Z</time></trkpt>
			<trkpt lat="54.851167" lon="20.447488"><time>1970-01-01T00:00:01.000Z</time></trkpt>
			<trkpt lat="54.851019" lon="20.446329"><time>1970-01-01T00:00:01.000Z</time></trkpt>
			<trkpt lat="54.850352" lon="20.444827"><time>1970-01-01T00:00:01.000Z</time></trkpt>
			<trkpt lat="54.847832" lon="20.444999"><time>1970-01-01T00:00:01.000Z</time></trkpt>
			<trkpt lat="54.843038" lon="20.444183"><time>1970-01-01T00:00:01.000Z</time></trkpt>
			<trkpt lat="54.838713" lon="20.443068"><time>1970-01-01T00:00:01.000Z</time></trkpt>
			<trkpt lat="54.836859" lon="20.442381"><time>1970-01-01T00:00:01.000Z</time></trkpt>
			<trkpt lat="54.834684" lon="20.440836"><time>1970-01-01T00:00:01.000Z</time></trkpt>
			<trkpt lat="54.833597" lon="20.441136"><time>1970-01-01T00:00:01.000Z</time></trkpt>
			<trkpt lat="54.832732" lon="20.442381"><time>1970-01-01T00:00:01.000Z</time></trkpt>
			<trkpt lat="54.831793" lon="20.442853"><time>1970-01-01T00:00:01.000Z</time></trkpt>
			<trkpt lat="54.831224" lon="20.442510"><time>1970-01-01T00:00:01.000Z</time></trkpt>
			<trkpt lat="54.830136" lon="20.442467"><time>1970-01-01T00:00:01.000Z</time></trkpt>
			<trkpt lat="54.829543" lon="20.441651"><time>1970-01-01T00:00:01.000Z</time></trkpt>
			<trkpt lat="54.828604" lon="20.441995"><time>1970-01-01T00:00:01.000Z</time></trkpt>
			<trkpt lat="54.827862" lon="20.441394"><time>1970-01-01T00:00:01.000Z</time></trkpt>
			<trkpt lat="54.827071" lon="20.440707"><time>1970-01-01T00:00:01.000Z</time></trkpt>
			<trkpt lat="54.826453" lon="20.439849"><time>1970-01-01T00:00:01.000Z</time></trkpt>
			<trkpt lat="54.825439" lon="20.439162"><time>1970-01-01T00:00:01.000Z</time></trkpt>
			<trkpt lat="54.824945" lon="20.438948"><time>1970-01-01T00:00:01.000Z</time></trkpt>
			<trkpt lat="54.824624" lon="20.439076"><time>1970-01-01T00:00:01.000Z</time></trkpt>
			<trkpt lat="54.824302" lon="20.438433"><time>1970-01-01T00:00:01.000Z</time></trkpt>
			<trkpt lat="54.823536" lon="20.437746"><time>1970-01-01T00:00:01.000Z</time></trkpt>
			<trkpt lat="54.823808" lon="20.435686"><time>1970-01-01T00:00:01.000Z</time></trkpt>
			<trkpt lat="54.824104" lon="20.431609"><time>1970-01-01T00:00:01.000Z</time></trkpt>
			<trkpt lat="54.824228" lon="20.430408"><time>1970-01-01T00:00:01.000Z</time></trkpt>
			<trkpt lat="54.823857" lon="20.430579"><time>1970-01-01T00:00:01.000Z</time></trkpt>
			<trkpt lat="54.823437" lon="20.430880"><time>1970-01-01T00:00:01.000Z</time></trkpt>
			<trkpt lat="54.820890" lon="20.430965"><time>1970-01-01T00:00:01.000Z</time></trkpt>
			<trkpt lat="54.818665" lon="20.431738"><time>1970-01-01T00:00:01.000Z</time></trkpt>
			<trkpt lat="54.815673" lon="20.433841"><time>1970-01-01T00:00:01.000Z</time></trkpt>
			<trkpt lat="54.812879" lon="20.436673"><time>1970-01-01T00:00:01.000Z</time></trkpt>
			<trkpt lat="54.811395" lon="20.438132"><time>1970-01-01T00:00:01.000Z</time></trkpt>
			<trkpt lat="54.808996" lon="20.438948"><time>1970-01-01T00:00:01.000Z</time></trkpt>
			<trkpt lat="54.807635" lon="20.438905"><time>1970-01-01T00:00:01.000Z</time></trkpt>
			<trkpt lat="54.806943" lon="20.439205"><time>1970-01-01T00:00:01.000Z</time></trkpt>
			<trkpt lat="54.805954" lon="20.438991"><time>1970-01-01T00:00:01.000Z</time></trkpt>
			<trkpt lat="54.805212" lon="20.439377"><time>1970-01-01T00:00:01.000Z</time></trkpt>
			<trkpt lat="54.802614" lon="20.439463"><time>1970-01-01T00:00:01.000Z</time></trkpt>
			<trkpt lat="54.800042" lon="20.440106"><time>1970-01-01T00:00:01.000Z</time></trkpt>
			<trkpt lat="54.799844" lon="20.439591"><time>1970-01-01T00:00:01.000Z</time></trkpt>
			<trkpt lat="54.799788" lon="20.439495"><time>1970-01-01T00:00:01.000Z</time></trkpt>
			<trkpt lat="54.799324" lon="20.439838"><time>1970-01-01T00:00:01.000Z</time></trkpt>
			<trkpt lat="54.798904" lon="20.439913"><time>1970-01-01T00:00:01.000Z</time></trkpt>
			<trkpt lat="54.798724" lon="20.439774"><time>1970-01-01T00:00:01.000Z</time></trkpt>
			<trkpt lat="54.798428" lon="20.440096"><time>1970-01-01T00:00:01.000Z</time></trkpt>
			<trkpt lat="54.797708" lon="20.440552"><time>1970-01-01T00:00:01.000Z</time></trkpt>
			<trkpt lat="54.797411" lon="20.440853"><time>1970-01-01T00:00:01.000Z</time></trkpt>
			<trkpt lat="54.798351" lon="20.444114"><time>1970-01-01T00:00:01.000Z</time></trkpt>
			<trkpt lat="54.797089" lon="20.444458"><time>1970-01-01T00:00:01.000Z</time></trkpt>
			<trkpt lat="54.796125" lon="20.444500"><time>1970-01-01T00:00:01.000Z</time></trkpt>
			<trkpt lat="54.795803" lon="20.444801"><time>1970-01-01T00:00:01.000Z</time></trkpt>
			<trkpt lat="54.793626" lon="20.441496"><time>1970-01-01T00:00:01.000Z</time></trkpt>
			<trkpt lat="54.793453" lon="20.441196"><time>1970-01-01T00:00:01.000Z</time></trkpt>
			<trkpt lat="54.787687" lon="20.443900"><time>1970-01-01T00:00:01.000Z</time></trkpt>
			<trkpt lat="54.782375" lon="20.446329"><time>1970-01-01T00:00:01.000Z</time></trkpt>
			<trkpt lat="54.781682" lon="20.446544"><time>1970-01-01T00:00:01.000Z</time></trkpt>
			<trkpt lat="54.781410" lon="20.445557"><time>1970-01-01T00:00:01.000Z</time></trkpt>
			<trkpt lat="54.779851" lon="20.443969"><time>1970-01-01T00:00:01.000Z</time></trkpt>
			<trkpt lat="54.779331" lon="20.443711"><time>1970-01-01T00:00:01.000Z</time></trkpt>
			<trkpt lat="54.779306" lon="20.440922"><time>1970-01-01T00:00:01.000Z</time></trkpt>
			<trkpt lat="54.778836" lon="20.438261"><time>1970-01-01T00:00:01.000Z</time></trkpt>
			<trkpt lat="54.778415" lon="20.436802"><time>1970-01-01T00:00:01.000Z</time></trkpt>
			<trkpt lat="54.777450" lon="20.436587"><time>1970-01-01T00:00:01.000Z</time></trkpt>
			<trkpt lat="54.777301" lon="20.437102"><time>1970-01-01T00:00:01.000Z</time></trkpt>
			<trkpt lat="54.775816" lon="20.436416"><time>1970-01-01T00:00:01.000Z</time></trkpt>
		</trkseg>
	</trk>
</gpx>